{
    "satellites": [
        {
            "name": "starlink327",
            "title": "Starlink-327 (G11-30) (new)",
            "tle": [
                "1 70989C 25271AC  25331.77201389 -.01278700  00000+0 -22628-2 0  3319",
                "2 70989  53.1580 261.8347 0000447 104.6306 274.8968 16.02483594    10"
            ],
            "stdMag": 5,
            "noradId": "70989",
            "tleUrl": "http://celestrak.org/NORAD/elements/supplemental/sup-gp.php?FILE=starlink&FORMAT=tle",
            "launchDate": "2025-11-23T08:48:00.000Z",
            "active": true,
            "batch": [
                {
                    "noradId": "70989",
                    "tle": [
                        "1 70989C 25271AC  25331.77201389 -.01278700  00000+0 -22628-2 0  3319",
                        "2 70989  53.1580 261.8347 0000447 104.6306 274.8968 16.02483594    10"
                    ]
                },
                {
                    "noradId": "70990",
                    "tle": [
                        "1 70990C 25271AD  25331.76993056 -.01279100  00000+0 -22508-2 0  3311",
                        "2 70990  53.1578 261.8435 0000370 109.0670 259.2685 16.02581840    11"
                    ]
                },
                {
                    "noradId": "70988",
                    "tle": [
                        "1 70988C 25271AB  25331.77340278 -.01282400  00000+0 -22450-2 0  3314",
                        "2 70988  53.1579 261.8239 0000391 100.9626 288.2491 16.02672605    12"
                    ]
                },
                {
                    "noradId": "70987",
                    "tle": [
                        "1 70987C 25271AA  25331.77131944 -.01285400  00000+0 -22353-2 0  3316",
                        "2 70987  53.1577 261.8326 0000412 102.6300 275.4244 16.02790906    17"
                    ]
                },
                {
                    "noradId": "70986",
                    "tle": [
                        "1 70986C 25271Z   25331.77618056 -.01255300  00000+0 -22663-2 0  3319",
                        "2 70986  53.1579 261.8211 0000471 102.5299 297.2185 16.02115260    12"
                    ]
                },
                {
                    "noradId": "70985",
                    "tle": [
                        "1 70985C 25271Y   25331.77756944 -.01253400  00000+0 -22746-2 0  3318",
                        "2 70985  53.1577 261.8153 0000337 100.9857 306.0035 16.02024315    10"
                    ]
                },
                {
                    "noradId": "70984",
                    "tle": [
                        "1 70984C 25271X   25331.76993056 -.01252100  00000+0 -22827-2 0  3319",
                        "2 70984  53.1578 261.8566 0000333  89.8504 272.2107 16.01945002    16"
                    ]
                },
                {
                    "noradId": "70983",
                    "tle": [
                        "1 70983C 25271W   25331.77340278 -.01249700  00000+0 -22921-2 0  3318",
                        "2 70983  53.1578 261.8406 0000242  94.4920 286.6696 16.01837272    12"
                    ]
                },
                {
                    "noradId": "70982",
                    "tle": [
                        "1 70982C 25271V   25331.77340278 -.01246600  00000+0 -23013-2 0  3316",
                        "2 70982  53.1578 261.8423 0000306 100.8970 279.3517 16.01721953    17"
                    ]
                },
                {
                    "noradId": "70981",
                    "tle": [
                        "1 70981C 25271U   25331.77270833 -.01244700  00000+0 -23083-2 0  3310",
                        "2 70981  53.1578 261.8477 0000347  86.4047 289.0366 16.01639809    12"
                    ]
                },
                {
                    "noradId": "70980",
                    "tle": [
                        "1 70980C 25271T   25331.77062500 -.01238400  00000+0 -23149-2 0  3312",
                        "2 70980  53.1578 261.8607 0000538 108.3576 254.0041 16.01495516    16"
                    ]
                },
                {
                    "noradId": "70979",
                    "tle": [
                        "1 70979C 25271S   25331.77756944 -.01236900  00000+0 -23262-2 0  3311",
                        "2 70979  53.1580 261.8266 0000486  98.7601 302.8546 16.01388639    10"
                    ]
                },
                {
                    "noradId": "70978",
                    "tle": [
                        "1 70978C 25271R   25331.77340278 -.01231000  00000+0 -23288-2 0  3313",
                        "2 70978  53.1581 261.8501 0000342  93.5414 283.1219 16.01279657    15"
                    ]
                },
                {
                    "noradId": "70977",
                    "tle": [
                        "1 70977C 25271Q   25331.77201389 -.01227100  00000+0 -23357-2 0  3314",
                        "2 70977  53.1582 261.8593 0000334  99.8229 267.9257 16.01168448    17"
                    ]
                },
                {
                    "noradId": "70976",
                    "tle": [
                        "1 70976C 25271P   25331.77687500 -.01226000  00000+0 -23452-2 0  3310",
                        "2 70976  53.1583 261.8356 0000603 109.7584 285.2744 16.01081380    11"
                    ]
                },
                {
                    "noradId": "70975",
                    "tle": [
                        "1 70975C 25271N   25331.77062500 -.01222400  00000+0 -23491-2 0  3319",
                        "2 70975  53.1583 261.8699 0000353  78.9579 279.1904 16.00997517    10"
                    ]
                },
                {
                    "noradId": "70974",
                    "tle": [
                        "1 70974C 25271M   25331.77479167 -.01218700  00000+0 -23591-2 0  3318",
                        "2 70974  53.1585 261.8504 0000446 105.3602 275.8768 16.00865282    15"
                    ]
                },
                {
                    "noradId": "70973",
                    "tle": [
                        "1 70973C 25271L   25331.77618056 -.01215300  00000+0 -23674-2 0  3314",
                        "2 70973  53.1584 261.8448 0000474 111.0226 277.3279 16.00751974    13"
                    ]
                },
                {
                    "noradId": "70972",
                    "tle": [
                        "1 70972C 25271K   25331.77826389 -.01210200  00000+0 -23756-2 0  3318",
                        "2 70972  53.1585 261.8364 0000397  96.6593 302.6889 16.00611497    13"
                    ]
                },
                {
                    "noradId": "70971",
                    "tle": [
                        "1 70971C 25271J   25331.77756944 -.01202900  00000+0 -23778-2 0  3318",
                        "2 70971  53.1585 261.8420 0000524 104.6687 289.6952 16.00481533    12"
                    ]
                },
                {
                    "noradId": "70970",
                    "tle": [
                        "1 70970C 25271H   25331.77340278 -.01194500  00000+0 -23886-2 0  3312",
                        "2 70970  53.1586 261.8673 0000352  93.9190 274.6244 16.00268238    13"
                    ]
                },
                {
                    "noradId": "70969",
                    "tle": [
                        "1 70969C 25271G   25331.76993056 -.01197600  00000+0 -23821-2 0  3310",
                        "2 70969  53.1585 261.8835 0000482  98.9912 250.3326 16.00366444    11"
                    ]
                },
                {
                    "noradId": "70968",
                    "tle": [
                        "1 70968C 25271F   25331.77826389 -.01195500  00000+0 -24036-2 0  3310",
                        "2 70968  53.1586 261.8439 0000410  94.4613 301.3151 16.00174052    16"
                    ]
                },
                {
                    "noradId": "70967",
                    "tle": [
                        "1 70967C 25271E   25331.77548611 -.01397200  00000+0 -22086-2 0  3312",
                        "2 70967  53.1585 261.8061 0000420 112.1098 292.5898 16.04521534    15"
                    ]
                },
                {
                    "noradId": "70966",
                    "tle": [
                        "1 70966C 25271D   25331.77618056 -.01174300  00000+0 -24197-2 0  3311",
                        "2 70966  53.1588 261.8624 0000320  95.4911 284.5965 15.99716459    19"
                    ]
                },
                {
                    "noradId": "70965",
                    "tle": [
                        "1 70965C 25271C   25331.77479167 -.01186400  00000+0 -24015-2 0  3311",
                        "2 70965  53.1587 261.8639 0000500  96.0792 278.6867 16.00045824    16"
                    ]
                },
                {
                    "noradId": "70964",
                    "tle": [
                        "1 70964C 25271B   25331.77756944 -.01362400  00000+0 -22166-2 0  3312",
                        "2 70964  53.1584 261.8003 0000389  98.7941 315.5385 16.04002111    19"
                    ]
                },
                {
                    "noradId": "70963",
                    "tle": [
                        "1 70963C 25271A   25331.77687500 -.01170100  00000+0 -24244-2 0  3315",
                        "2 70963  53.1589 261.8606 0000388  88.1693 295.0686 15.99614499    15"
                    ]
                }
            ]
        }
    ],
    "config": {}
}